NORAD_CAT_ID,OBJECT_NAME,OBJECT_TYPE,EPOCH,MEAN_MOTION,ECCENTRICITY,INCLINATION,RA_OF_ASC_NODE,ARG_OF_PERICENTER,MEAN_ANOMALY,BSTAR,MEAN_MOTION_DOT,MEAN_MOTION_DDOT,TLE_LINE0,TLE_LINE1,TLE_LINE2,SEMIMAJOR_AXIS,PERIOD,APOGEE,PERIGEE,DECAYED
51788.0,STARLINK-3641,PAYLOAD,2023-09-30 15:36:41,15.08852783,0.0001447,53.2192,29.1527,80.954,279.1615,0.00043204,6.597e-05,0.0,0 STARLINK-3641,1 51788U 22017W   23273.65048004  .00006597  00000-0  43204-3 0  9998,2 51788  53.2192  29.1527 0001447  80.9540 279.1615 15.08852783 89400,6917.841,95.437,540.707,538.705,0.0
51788.0,STARLINK-3641,PAYLOAD,2023-10-01 12:16:41,15.08852469,0.000149,53.2186,25.2859,85.7908,274.3254,0.00025789,3.82e-05,0.0,0 STARLINK-3641,1 51788U 22017W   23274.51159621  .00003820  00000-0  25789-3 0  9996,2 51788  53.2186  25.2859 0001490  85.7908 274.3254 15.08852469 89538,6917.842,95.437,540.738,538.677,0.0
51788.0,STARLINK-3641,PAYLOAD,2023-10-01 13:52:04,15.08855782,0.0001377,53.2184,24.9891,86.5477,273.5673,0.00035901,5.433e-05,0.0,0 STARLINK-3641,1 51788U 22017W   23274.57783427  .00005433  00000-0  35901-3 0  9998,2 51788  53.2184  24.9891 0001377  86.5477 273.5673 15.08855782 89540,6917.832,95.437,540.65,538.745,0.0
51788.0,STARLINK-3641,PAYLOAD,2023-10-02 00:59:46,15.08847122,0.0001406,53.219,22.9058,89.5367,270.5787,0.00020521,2.98e-05,0.0,0 STARLINK-3641,1 51788U 22017W   23275.04151501  .00002980  00000-0  20521-3 0  9999,2 51788  53.2190  22.9058 0001406  89.5367 270.5787 15.08847122 89614,6917.859,95.437,540.696,538.751,0.0
51788.0,STARLINK-3641,PAYLOAD,2023-10-02 13:42:52,15.08843179,0.0001585,53.219,20.5302,78.3322,281.7848,4.3691e-05,4.07e-06,0.0,0 STARLINK-3641,1 51788U 22017W   23275.57143762  .00000407  00000-0  43691-4 0  9993,2 51788  53.2190  20.5302 0001585  78.3322 281.7848 15.08843179 89693,6917.871,95.437,540.832,538.639,0.0
51788.0,STARLINK-3641,PAYLOAD,2023-10-03 13:33:39,15.0884249,0.0001483,53.2182,16.0688,78.1229,281.993,0.00015132,2.121e-05,0.0,0 STARLINK-3641,1 51788U 22017W   23276.56503990  .00002121  00000-0  15132-3 0  9999,2 51788  53.2182  16.0688 0001483  78.1229 281.9930 15.08842490 89848,6917.873,95.437,540.764,538.712,0.0
51788.0,STARLINK-3641,PAYLOAD,2023-10-04 10:13:40,15.08844474,0.000154,53.2184,12.205,81.2959,278.8207,0.00026492,3.931e-05,0.0,0 STARLINK-3641,1 51788U 22017W   23277.42616066  .00003931  00000-0  26492-3 0  9995,2 51788  53.2184  12.2050 0001540  81.2959 278.8207 15.08844474 89970,6917.867,95.437,540.797,538.666,0.0
51788.0,STARLINK-3641,PAYLOAD,2023-10-04 13:24:26,15.08855221,0.0001576,53.2188,11.6114,79.3478,280.7692,0.0004254,6.492e-05,0.0,0 STARLINK-3641,1 51788U 22017W   23277.55863697  .00006492  00000-0  42540-3 0  9990,2 51788  53.2188  11.6114 0001576  79.3478 280.7692 15.08855221 89995,6917.834,95.437,540.789,538.609,0.0
51788.0,STARLINK-3641,PAYLOAD,2023-10-04 14:59:49,15.08859474,0.0001483,53.2181,11.3121,77.2404,282.8753,0.00050846,7.818e-05,0.0,0 STARLINK-3641,1 51788U 22017W   23277.62487570  .00007818  00000-0  50846-3 0  9991,2 51788  53.2181  11.3121 0001483  77.2404 282.8753 15.08859474 90005,6917.821,95.436,540.712,538.66,0.0
51788.0,STARLINK-3641,PAYLOAD,2023-10-04 22:56:45,15.08841042,0.0001626,53.2184,9.8234,80.5574,279.5602,7.8927e-05,9.68e-06,0.0,0 STARLINK-3641,1 51788U 22017W   23277.95608086  .00000968  00000-0  78927-4 0  9994,2 51788  53.2184   9.8234 0001626  80.5574 279.5602 15.08841042 90052,6917.877,95.437,540.867,538.617,0.0
51788.0,STARLINK-3641,PAYLOAD,2023-10-05 13:15:13,15.08843696,0.0001618,53.2187,7.1532,102.6267,257.4906,0.00013349,1.837e-05,0.0,0 STARLINK-3641,1 51788U 22017W   23278.55224111  .00001837  00000-0  13349-3 0  9996,2 51788  53.2187   7.1532 0001618 102.6267 257.4906 15.08843696 90142,6917.869,95.437,540.853,538.615,0.0
51788.0,STARLINK-3641,PAYLOAD,2023-10-05 16:25:59,15.08854225,0.0001538,53.2182,6.5539,86.1522,273.9646,0.00037589,5.702e-05,0.0,0 STARLINK-3641,1 51788U 22017W   23278.68471787  .00005702  00000-0  37589-3 0  9990,2 51788  53.2182   6.5539 0001538  86.1522 273.9646 15.08854225 90164,6917.837,95.437,540.766,538.638,0.0
51788.0,STARLINK-3641,PAYLOAD,2023-10-06 05:09:05,15.08833987,0.0001678,53.2173,4.1758,87.2429,272.8755,-0.00012835,-2.33e-05,0.0,0 STARLINK-3641,1 51788U 22017W   23279.21464630 -.00002330  00000-0 -12835-3 0  9992,2 51788  53.2173   4.1758 0001678  87.2429 272.8755 15.08833987 90244,6917.899,95.438,540.925,538.603,0.0
51788.0,STARLINK-3641,PAYLOAD,2023-10-06 13:06:01,15.08833588,0.000205,53.2188,2.6892,82.2244,277.8981,-1.2339e-05,-4.85e-06,0.0,0 STARLINK-3641,1 51788U 22017W   23279.54585010 -.00000485  00000-0 -12339-4 0  9993,2 51788  53.2188   2.6892 0002050  82.2244 277.8981 15.08833588 90295,6917.9,95.438,541.183,538.347,0.0
51788.0,STARLINK-3641,PAYLOAD,2023-10-07 09:46:02,15.08844063,0.0001715,53.218,358.8237,88.932,271.1869,0.00032591,4.903e-05,0.0,0 STARLINK-3641,1 51788U 22017W   23280.40697002  .00004903  00000-0  32591-3 0  9993,2 51788  53.2180 358.8237 0001715  88.9320 271.1869 15.08844063 90428,6917.868,95.437,540.919,538.547,0.0
51788.0,STARLINK-3641,PAYLOAD,2023-10-07 12:56:47,15.08854008,0.0001583,53.2175,358.2272,80.1537,279.9634,0.00038648,5.871e-05,0.0,0 STARLINK-3641,1 51788U 22017W   23280.53944388  .00005871  00000-0  38648-3 0  9993,2 51788  53.2175 358.2272 0001583  80.1537 279.9634 15.08854008 90440,6917.838,95.437,540.798,538.607,0.0
51788.0,STARLINK-3641,PAYLOAD,2023-10-08 11:12:12,15.08845636,0.0001838,53.2167,354.0646,96.5924,263.5278,0.00023769,3.497e-05,0.0,0 STARLINK-3641,1 51788U 22017W   23281.46680995  .00003497  00000-0  23769-3 0  9997,2 51788  53.2167 354.0646 0001838  96.5924 263.5278 15.08845636 90589,6917.863,95.437,541.0,538.457,0.0
51788.0,STARLINK-3641,PAYLOAD,2023-10-08 12:47:35,15.08851409,0.0001762,53.2169,353.7673,91.8188,268.3006,0.00038731,5.883e-05,0.0,0 STARLINK-3641,1 51788U 22017W   23281.53304879  .00005883  00000-0  38731-3 0  9995,2 51788  53.2169 353.7673 0001762  91.8188 268.3006 15.08851409 90591,6917.846,95.437,540.929,538.492,0.0
51788.0,STARLINK-3641,PAYLOAD,2023-10-08 17:33:44,15.08854594,0.0001757,53.2162,352.8735,96.0676,264.0516,0.00050075,7.694e-05,0.0,0 STARLINK-3641,1 51788U 22017W   23281.73176726  .00007694  00000-0  50075-3 0  9992,2 51788  53.2162 352.8735 0001757  96.0676 264.0516 15.08854594 90627,6917.836,95.437,540.916,538.485,0.0
51788.0,STARLINK-3641,PAYLOAD,2023-10-08 22:19:54,15.08829732,9.32e-05,53.2172,351.9841,93.6463,266.4636,-0.00022004,-3.787e-05,0.0,0 STARLINK-3641,1 51788U 22017W   23281.93049084 -.00003787  00000-0 -22004-3 0  9992,2 51788  53.2172 351.9841 0000932  93.6463 266.4636 15.08829732 90655,6917.912,95.438,540.422,539.132,0.0
51788.0,STARLINK-3641,PAYLOAD,2023-10-09 11:02:59,15.08844239,0.0001685,53.2166,349.6043,93.9295,266.1889,0.0005378,8.282e-05,0.0,0 STARLINK-3641,1 51788U 22017W   23282.46041315  .00008282  00000-0  53780-3 0  9998,2 51788  53.2166 349.6043 0001685  93.9295 266.1889 15.08844239 90733,6917.867,95.437,540.898,538.567,0.0
51788.0,STARLINK-3641,PAYLOAD,2023-10-10 10:53:46,15.08857748,0.0001705,53.217,345.1439,97.2088,262.9098,0.000655,0.00010157,0.0,0 STARLINK-3641,1 51788U 22017W   23283.45400830  .00010157  00000-0  65500-3 0  9996,2 51788  53.2170 345.1439 0001705  97.2088 262.9098 15.08857748 90889,6917.826,95.436,540.871,538.512,0.0
51788.0,STARLINK-3641,PAYLOAD,2023-10-10 14:04:32,15.08863831,0.0001718,53.2166,344.5486,95.3594,264.7594,0.00073619,0.00011455,0.0,0 STARLINK-3641,1 51788U 22017W   23283.58648567  .00011455  00000-0  73619-3 0  9993,2 51788  53.2166 344.5486 0001718  95.3594 264.7594 15.08863831 90908,6917.808,95.436,540.861,538.484,0.0
51788.0,STARLINK-3641,PAYLOAD,2023-10-11 12:19:57,15.08838457,0.0001707,53.2175,340.3872,81.3983,278.7203,0.00015167,2.127e-05,0.0,0 STARLINK-3641,1 51788U 22017W   23284.51385517  .00002127  00000-0  15167-3 0  9990,2 51788  53.2175 340.3872 0001707  81.3983 278.7203 15.08838457 91040,6917.885,95.438,540.931,538.569,0.0
51788.0,STARLINK-3641,PAYLOAD,2023-10-12 13:46:07,15.08860596,0.0001779,53.2172,335.6288,81.5629,278.5564,0.0011574,0.0001819,0.0,0 STARLINK-3641,1 51788U 22017W   23285.57369553  .00018190  00000-0  11574-2 0  9993,2 51788  53.2172 335.6288 0001779  81.5629 278.5564 15.08860596 91208,6917.817,95.436,540.913,538.452,0.0
51788.0,STARLINK-3641,PAYLOAD,2023-10-12 23:18:26,15.08846403,0.0001475,53.2174,333.8447,94.7456,265.3705,0.00042381,6.465e-05,0.0,0 STARLINK-3641,1 51788U 22017W   23285.97113706  .00006465  00000-0  42381-3 0  9997,2 51788  53.2174 333.8447 0001475  94.7456 265.3705 15.08846403 91262,6917.861,95.437,540.746,538.705,0.0
51788.0,STARLINK-3641,PAYLOAD,2023-10-13 10:26:08,15.08849853,0.0001634,53.2165,331.7637,88.9938,271.1241,0.00039275,5.97e-05,0.0,0 STARLINK-3641,1 51788U 22017W   23286.43481616  .00005970  00000-0  39275-3 0  9995,2 51788  53.2165 331.7637 0001634  88.9938 271.1241 15.08849853 91337,6917.85,95.437,540.846,538.585,0.0
51788.0,STARLINK-3641,PAYLOAD,2023-10-14 10:16:54,15.08854884,0.0001693,53.2162,327.3051,92.8613,267.2573,0.00048737,7.48e-05,0.0,0 STARLINK-3641,1 51788U 22017W   23287.42841217  .00007480  00000-0  48737-3 0  9993,2 51788  53.2162 327.3051 0001693  92.8613 267.2573 15.08854884 91484,6917.835,95.437,540.871,538.529,0.0
51788.0,STARLINK-3641,PAYLOAD,2023-10-14 11:52:17,15.08858182,0.0001696,53.2161,327.0069,95.174,264.9446,0.00056622,8.739e-05,0.0,0 STARLINK-3641,1 51788U 22017W   23287.49465070  .00008739  00000-0  56622-3 0  9999,2 51788  53.2161 327.0069 0001696  95.1740 264.9446 15.08858182 91498,6917.825,95.436,540.863,538.517,0.0
51788.0,STARLINK-3641,PAYLOAD,2023-10-14 19:49:14,15.08834742,0.0002377,53.2174,325.5177,89.26,270.8665,-9.4599e-06,-4.39e-06,0.0,0 STARLINK-3641,1 51788U 22017W   23287.82585755 -.00000439  00000-0 -94599-5 0  9997,2 51788  53.2174 325.5177 0002377  89.2600 270.8665 15.08834742 91542,6917.896,95.438,541.406,538.117,0.0
